[
    {
        "Altitude(m)": 702740.7178450659,
        "Argument of Periapsis(deg)": 0.005695060593313534,
        "Eccentricity": 0.0,
        "Inclination(deg)": 45.0,
        "Latitude(deg)": 15.483983277456197,
        "Longitude(deg)": 10.622257910925608,
        "Mean Anomaly(deg)": 22.130208323740423,
        "RAAN(deg)": 94.9946240292709,
        "Satellite Name": "Constellation 1 419",
        "Satellite Number": 419,
        "Semi-Major Axis(m)": 7083131.272910544,
        "Time(s)": 95
    },
    {
        "Altitude(m)": 702742.3082053474,
        "Argument of Periapsis(deg)": 0.00575500859955894,
        "Eccentricity": 0.0,
        "Inclination(deg)": 45.0,
        "Latitude(deg)": 15.525507885705055,
        "Longitude(deg)": 10.664299282251623,
        "Mean Anomaly(deg)": 22.190909463990298,
        "RAAN(deg)": 94.99456744010533,
        "Satellite Name": "Constellation 1 419",
        "Satellite Number": 419,
        "Semi-Major Axis(m)": 7083131.272910544,
        "Time(s)": 96
    },
    {
        "Altitude(m)": 702743.9155931195,
        "Argument of Periapsis(deg)": 0.005814956605804345,
        "Eccentricity": 0.0,
        "Inclination(deg)": 45.0,
        "Latitude(deg)": 15.567022718010385,
        "Longitude(deg)": 10.706359309489466,
        "Mean Anomaly(deg)": 22.251610604240224,
        "RAAN(deg)": 94.99451085093978,
        "Satellite Name": "Constellation 1 419",
        "Satellite Number": 419,
        "Semi-Major Axis(m)": 7083131.272910544,
        "Time(s)": 97
    },
    {
        "Altitude(m)": 702745.5399834935,
        "Argument of Periapsis(deg)": 0.00587490461204975,
        "Eccentricity": 0.0,
        "Inclination(deg)": 45.0,
        "Latitude(deg)": 15.608527743019918,
        "Longitude(deg)": 10.748437879418397,
        "Mean Anomaly(deg)": 22.312311744490096,
        "RAAN(deg)": 94.9944542617742,
        "Satellite Name": "Constellation 1 419",
        "Satellite Number": 419,
        "Semi-Major Axis(m)": 7083131.272910544,
        "Time(s)": 98
    },
    {
        "Altitude(m)": 702747.1813515124,
        "Argument of Periapsis(deg)": 0.005934852618295156,
        "Eccentricity": 0.0,
        "Inclination(deg)": 45.0,
        "Latitude(deg)": 15.65002292934549,
        "Longitude(deg)": 10.790535046945736,
        "Mean Anomaly(deg)": 22.373012884740007,
        "RAAN(deg)": 94.99439767260863,
        "Satellite Name": "Constellation 1 419",
        "Satellite Number": 419,
        "Semi-Major Axis(m)": 7083131.272910544,
        "Time(s)": 99
    },
    {
        "Altitude(m)": 702748.8396721405,
        "Argument of Periapsis(deg)": 0.005994800624540561,
        "Eccentricity": 0.0,
        "Inclination(deg)": 45.0,
        "Latitude(deg)": 15.691508245562492,
        "Longitude(deg)": 10.832650867009487,
        "Mean Anomaly(deg)": 22.433714024989932,
        "RAAN(deg)": 94.99434108344305,
        "Satellite Name": "Constellation 1 419",
        "Satellite Number": 419,
        "Semi-Major Axis(m)": 7083131.272910544,
        "Time(s)": 100
    },
    {
        "Altitude(m)": 702750.5149202883,
        "Argument of Periapsis(deg)": 0.006054748630785968,
        "Eccentricity": 0.0,
        "Inclination(deg)": 45.0,
        "Latitude(deg)": 15.732983660209772,
        "Longitude(deg)": 10.874785394578517,
        "Mean Anomaly(deg)": 22.494415165239804,
        "RAAN(deg)": 94.99428449427748,
        "Satellite Name": "Constellation 1 419",
        "Satellite Number": 419,
        "Semi-Major Axis(m)": 7083131.272910544,
        "Time(s)": 101
    },
    {
        "Altitude(m)": 702752.2070707873,
        "Argument of Periapsis(deg)": 0.006114696637031373,
        "Eccentricity": 0.0,
        "Inclination(deg)": 45.0,
        "Latitude(deg)": 15.774449141789626,
        "Longitude(deg)": 10.916938684652575,
        "Mean Anomaly(deg)": 22.555116305489705,
        "RAAN(deg)": 94.9942279051119,
        "Satellite Name": "Constellation 1 419",
        "Satellite Number": 419,
        "Semi-Major Axis(m)": 7083131.272910544,
        "Time(s)": 102
    },
    {
        "Altitude(m)": 702753.9160984101,
        "Argument of Periapsis(deg)": 0.006174644643276778,
        "Eccentricity": 0.0,
        "Inclination(deg)": 45.0,
        "Latitude(deg)": 15.81590465876754,
        "Longitude(deg)": 10.959110792262296,
        "Mean Anomaly(deg)": 22.61581744573959,
        "RAAN(deg)": 94.99417131594635,
        "Satellite Name": "Constellation 1 419",
        "Satellite Number": 419,
        "Semi-Major Axis(m)": 7083131.272910544,
        "Time(s)": 103
    },
    {
        "Altitude(m)": 702755.6419778384,
        "Argument of Periapsis(deg)": 0.006234592649522184,
        "Eccentricity": 0.0,
        "Inclination(deg)": 45.0,
        "Latitude(deg)": 15.857350179571897,
        "Longitude(deg)": 11.001301604372049,
        "Mean Anomaly(deg)": 22.676518585989516,
        "RAAN(deg)": 94.99411472678078,
        "Satellite Name": "Constellation 1 419",
        "Satellite Number": 419,
        "Semi-Major Axis(m)": 7083131.272910544,
        "Time(s)": 104
    },
    {
        "Altitude(m)": 702757.3846837194,
        "Argument of Periapsis(deg)": 0.00629454065576759,
        "Eccentricity": 0.0,
        "Inclination(deg)": 45.0,
        "Latitude(deg)": 15.898785672595002,
        "Longitude(deg)": 11.043511512268276,
        "Mean Anomaly(deg)": 22.73721972623939,
        "RAAN(deg)": 94.9940581376152,
        "Satellite Name": "Constellation 1 419",
        "Satellite Number": 419,
        "Semi-Major Axis(m)": 7083131.272910544,
        "Time(s)": 105
    },
    {
        "Altitude(m)": 702759.1441906017,
        "Argument of Periapsis(deg)": 0.006354488662012995,
        "Eccentricity": 0.0,
        "Inclination(deg)": 45.0,
        "Latitude(deg)": 15.940211106191187,
        "Longitude(deg)": 11.085740402977311,
        "Mean Anomaly(deg)": 22.797920866489314,
        "RAAN(deg)": 94.99400154844963,
        "Satellite Name": "Constellation 1 419",
        "Satellite Number": 419,
        "Semi-Major Axis(m)": 7083131.272910544,
        "Time(s)": 106
    },
    {
        "Altitude(m)": 702760.9204729847,
        "Argument of Periapsis(deg)": 0.006414436668258401,
        "Eccentricity": 0.0,
        "Inclination(deg)": 45.0,
        "Latitude(deg)": 15.981626448677892,
        "Longitude(deg)": 11.127988331653365,
        "Mean Anomaly(deg)": 22.858622006739203,
        "RAAN(deg)": 94.99394495928408,
        "Satellite Name": "Constellation 1 419",
        "Satellite Number": 419,
        "Semi-Major Axis(m)": 7083131.272910544,
        "Time(s)": 107
    },
    {
        "Altitude(m)": 702762.7135052879,
        "Argument of Periapsis(deg)": 0.0064743846745038075,
        "Eccentricity": 0.0,
        "Inclination(deg)": 45.0,
        "Latitude(deg)": 16.023031668335246,
        "Longitude(deg)": 11.170255353481574,
        "Mean Anomaly(deg)": 22.9193231469891,
        "RAAN(deg)": 94.9938883701185,
        "Satellite Name": "Constellation 1 419",
        "Satellite Number": 419,
        "Semi-Major Axis(m)": 7083131.272910544,
        "Time(s)": 108
    },
    {
        "Altitude(m)": 702764.5232618697,
        "Argument of Periapsis(deg)": 0.0065343326807492125,
        "Eccentricity": 0.0,
        "Inclination(deg)": 45.0,
        "Latitude(deg)": 16.064426733406034,
        "Longitude(deg)": 11.21254152367811,
        "Mean Anomaly(deg)": 22.980024287239022,
        "RAAN(deg)": 94.99383178095293,
        "Satellite Name": "Constellation 1 419",
        "Satellite Number": 419,
        "Semi-Major Axis(m)": 7083131.272910544,
        "Time(s)": 109
    },
    {
        "Altitude(m)": 702766.3497170199,
        "Argument of Periapsis(deg)": 0.0065942806869946176,
        "Eccentricity": 0.0,
        "Inclination(deg)": 45.0,
        "Latitude(deg)": 16.10581161209543,
        "Longitude(deg)": 11.254846897490077,
        "Mean Anomaly(deg)": 23.0407254274889,
        "RAAN(deg)": 94.99377519178736,
        "Satellite Name": "Constellation 1 419",
        "Satellite Number": 419,
        "Semi-Major Axis(m)": 7083131.272910544,
        "Time(s)": 110
    },
    {
        "Altitude(m)": 702768.192844958,
        "Argument of Periapsis(deg)": 0.006654228693240024,
        "Eccentricity": 0.0,
        "Inclination(deg)": 45.0,
        "Latitude(deg)": 16.147186272570732,
        "Longitude(deg)": 11.297171362098588,
        "Mean Anomaly(deg)": 23.101426567738812,
        "RAAN(deg)": 94.9937186026218,
        "Satellite Name": "Constellation 1 419",
        "Satellite Number": 419,
        "Semi-Major Axis(m)": 7083131.272910544,
        "Time(s)": 111
    },
    {
        "Altitude(m)": 702770.0526198425,
        "Argument of Periapsis(deg)": 0.006714176699485429,
        "Eccentricity": 0.0,
        "Inclination(deg)": 45.0,
        "Latitude(deg)": 16.188550682962376,
        "Longitude(deg)": 11.339515309006728,
        "Mean Anomaly(deg)": 23.162127707988684,
        "RAAN(deg)": 94.99366201345623,
        "Satellite Name": "Constellation 1 419",
        "Satellite Number": 419,
        "Semi-Major Axis(m)": 7083131.272910544,
        "Time(s)": 112
    },
    {
        "Altitude(m)": 702771.9290157533,
        "Argument of Periapsis(deg)": 0.006774124705730835,
        "Eccentricity": 0.0,
        "Inclination(deg)": 45.0,
        "Latitude(deg)": 16.22990481136203,
        "Longitude(deg)": 11.381878625457635,
        "Mean Anomaly(deg)": 23.222828848238606,
        "RAAN(deg)": 94.99360542429066,
        "Satellite Name": "Constellation 1 419",
        "Satellite Number": 419,
        "Semi-Major Axis(m)": 7083131.272910544,
        "Time(s)": 113
    }
]